EYESAT A (AO-27)        
1 22825U 93061C   26170.72690550  .00000069  00000+0  43200-4 0  9995
2 22825  98.6880 238.1396 0009545  93.2451 266.9824 14.30942876707363
ITAMSAT (IO-26)         
1 22826U 93061D   26170.70556031  .00000068  00000+0  42305-4 0  9993
2 22826  98.6829 238.0359 0010016  78.3690 281.8617 14.31369842707676
RADIO ROSTO (RS15)      
1 23439U 94085A   26170.77665375 -.00000032  00000+0  29729-3 0  9996
2 23439  64.8186 299.0280 0156019   3.3963 356.7984 11.27583478296197
JAS-2 (FO-29)           
1 24278U 96046B   26170.30734483 -.00000013  00000+0  19676-4 0  9993
2 24278  98.5238  18.8890 0350921  90.9460 273.1898 13.53274520473455
FORTE                   
1 24920U 97047A   26170.68665041  .00000107  00000+0  66179-4 0  9996
2 24920  69.9539   8.3754 0024632 274.3140  85.5167 14.27945987499049
TECHSAT 1B (GO-32)      
1 25397U 98043D   26170.59313746  .00000028  00000+0  32334-4 0  9992
2 25397  99.0068 163.4125 0001179 158.0468 202.0760 14.24428772451673
ISS (ZARYA)             
1 25544U 98067A   26170.83410214  .00008787  00000+0  16559-3 0  9997
2 25544  51.6327 286.9925 0004571 206.3214 153.7542 15.49322400572160
IMAGE                   
1 26113U 00017A   26162.34581823  .00000011  00000+0  22926-1 0  9995
2 26113  94.2241 315.2958 7436383 288.4674   8.8959  1.68665984161407
CLUSTER II-FM7 (SAMBA)  
1 26410U 00041A   26172.60119800  .00004700  00000+0  00000+0 0  9990
2 26410 149.9156  51.6296 9060156 268.8489 359.5243  0.44827446 20328
CLUSTER II-FM8 (TANGO)  
1 26464U 00045B   26168.43823291  .00013202  00000+0  00000+0 0  9992
2 26464 150.1515  52.0898 9060795 269.1034   2.6615  0.44409350 20310
ODIN                    
1 26702U 01007A   26170.57048921  .00168116  00000+0  10417-2 0  9994
2 26702  97.3813 211.6668 0006791 140.5519 219.6242 15.76539587389774
OMNI-M1                 
1 26857U 01026A   26167.20907279 -.00000001  00000+0  00000+0 0  9995
2 26857  44.8307 245.4893 0014194  53.4474 306.7446  3.92401638205538
PCSAT (NO-44)           
1 26931U 01043C   26170.46421187  .00000069  00000+0  56710-4 0  9995
2 26931  67.0503 238.3826 0006071 264.6525  95.3885 14.31956812290773
PROBA-1                 
1 26958U 01049B   26170.85811485  .00000575  00000+0  41159-4 0  9990
2 26958  97.9594 179.4839 0056465 113.1398 247.5792 15.07498258344026
SAUDISAT 1C (SO-50)     
1 27607U 02058C   26170.85258546  .00000740  00000+0  10489-3 0  9991
2 27607  64.5513 120.7383 0075162 261.9782  97.2791 14.83051819264858
CORIOLIS                
1 27640U 03001A   26170.59299289  .00000066  00000+0  51487-4 0  9992
2 27640  98.7125 177.4411 0013512 201.5448 158.5161 14.19945392214566
CUTE-1 (CO-55)          
1 27844U 03031E   26170.56610412  .00000202  00000+0  10624-3 0  9992
2 27844  98.6736 179.0951 0009689 171.1603 188.9749 14.24336935192018
CUBESAT XI-IV (CO-57)   
1 27848U 03031J   26170.48547204  .00000165  00000+0  91471-4 0  9993
2 27848  98.6765 178.7263 0009188 190.0962 170.0034 14.23621824191705
MOZHAETS 4 (RS22)       
1 27939U 03042A   26170.86919330  .00000561  00000+0  94697-4 0  9994
2 27939  98.3468 355.3034 0009932 260.1421 207.0533 14.73470566215946
